ONEWEB-0342             
1 49208U 21083Y   25230.85399622  .00000032  00000+0  45932-4 0  9994
2 49208  87.9290 334.6865 0001856  96.0751 264.0593 13.20773004196870
ONEWEB-0343             
1 49209U 21083Z   25230.99636644 -.00000030  00000+0 -10789-3 0  9999
2 49209  87.9144  35.4635 0001195  91.1367 268.9902 13.18684794191501
ONEWEB-0344             
1 49210U 21083AA  25230.92332688 -.00000063  00000+0 -20788-3 0  9991
2 49210  87.8989  20.3207 0001505 107.9863 252.1430 13.13471453192513
ONEWEB-0345             
1 49211U 21083AB  25230.91487647 -.00000268  00000+0 -76946-3 0  9991
2 49211  87.8990  20.2750 0001473 110.0087 250.1201 13.13470378192525
ONEWEB-0346             
1 49212U 21083AC  25231.00544096  .00000001  00000+0 -30100-4 0  9992
2 49212  87.9145  35.4840 0002310 102.4070 257.7321 13.18684922191448
ONEWEB-0348             
1 49213U 21083AD  25231.22330300  .00000135  00000+0  30071-3 0  9991
2 49213  87.9293 334.6245 0002072 117.5167 242.6177 13.20770519198254
ONEWEB-0350             
1 49214U 21083AE  25230.92418157 -.00000028  00000+0 -11150-3 0  9995
2 49214  87.8995  20.2647 0001617 105.2507 254.8800 13.13469981192558
ONEWEB-0351             
1 49215U 21083AF  25230.83807048 -.00000106  00000+0 -29275-3 0  9991
2 49215  87.9304 334.6851 0001285  75.6056 284.5220 13.20770157196865
ONEWEB-0352             
1 49216U 21083AG  25230.98087691 -.00000492  00000+0 -13829-2 0  9997
2 49216  87.8982  20.2926 0001466  82.9389 277.1907 13.13469365192650
ONEWEB-0354             
1 49217U 21083AH  25231.24225873  .00000147  00000+0  33011-3 0  9995
2 49217  87.9299 334.6038 0001812 108.7537 251.3793 13.20772352198267
ONEWEB-0355             
1 49218U 21083AJ  25230.85743022  .00000229  00000+0  59163-3 0  9990
2 49218  87.8997  20.3189 0001508  96.2166 263.9135 13.13472055191215
ONEWEB-0357             
1 49219U 21083AK  25231.23910499 -.00000065  00000+0 -19233-3 0  9992
2 49219  87.9293 334.6068 0001710  98.4074 261.7253 13.20770558198255
ONEWEB-0332             
1 49279U 21090A   25230.87878314 -.00000023  00000+0 -96749-4 0  9996
2 49279  87.9091 349.8875 0001834  90.5215 269.6125 13.14501047187866
ONEWEB-0347             
1 49280U 21090B   25230.85084543 -.00000045  00000+0 -14274-3 0  9995
2 49280  87.9301 334.6956 0002134  92.0064 268.1314 13.20772198191130
ONEWEB-0349             
1 49281U 21090C   25230.65514822 -.00000040  00000+0 -13009-3 0  9992
2 49281  87.9293 334.7372 0001786  99.1539 260.9797 13.20772699189892
ONEWEB-0353             
1 49282U 21090D   25230.87086765  .00000089  00000+0  20447-3 0  9992
2 49282  87.9086 349.8759 0001913  91.2698 268.8651 13.14501880187866
ONEWEB-0356             
1 49283U 21090E   25230.57780462  .00000037  00000+0  58423-4 0  9994
2 49283  87.9295 334.7437 0002782 104.7738 255.3704 13.20772879189884
