[{"OBJECT_NAME":"ONEWEB-0342","OBJECT_ID":"2021-083Y","EPOCH":"2025-08-18T20:29:45.273408","MEAN_MOTION":13.20773004,"ECCENTRICITY":0.0001856,"INCLINATION":87.929,"RA_OF_ASC_NODE":334.6865,"ARG_OF_PERICENTER":96.0751,"MEAN_ANOMALY":264.0593,"EPHEMERIS_TYPE":0,"CLASSIFICATION_TYPE":"U","NORAD_CAT_ID":49208,"ELEMENT_SET_NO":999,"REV_AT_EPOCH":19687,"BSTAR":4.5932e-5,"MEAN_MOTION_DOT":3.2e-7,"MEAN_MOTION_DDOT":0},{"OBJECT_NAME":"ONEWEB-0343","OBJECT_ID":"2021-083Z","EPOCH":"2025-08-18T23:54:46.060416","MEAN_MOTION":13.18684794,"ECCENTRICITY":0.0001195,"INCLINATION":87.9144,"RA_OF_ASC_NODE":35.4635,"ARG_OF_PERICENTER":91.1367,"MEAN_ANOMALY":268.9902,"EPHEMERIS_TYPE":0,"CLASSIFICATION_TYPE":"U","NORAD_CAT_ID":49209,"ELEMENT_SET_NO":999,"REV_AT_EPOCH":19150,"BSTAR":-0.00010789,"MEAN_MOTION_DOT":-3.0e-7,"MEAN_MOTION_DDOT":0},{"OBJECT_NAME":"ONEWEB-0344","OBJECT_ID":"2021-083AA","EPOCH":"2025-08-18T22:09:35.442432","MEAN_MOTION":13.13471453,"ECCENTRICITY":0.0001505,"INCLINATION":87.8989,"RA_OF_ASC_NODE":20.3207,"ARG_OF_PERICENTER":107.9863,"MEAN_ANOMALY":252.143,"EPHEMERIS_TYPE":0,"CLASSIFICATION_TYPE":"U","NORAD_CAT_ID":49210,"ELEMENT_SET_NO":999,"REV_AT_EPOCH":19251,"BSTAR":-0.00020788,"MEAN_MOTION_DOT":-6.3e-7,"MEAN_MOTION_DDOT":0},{"OBJECT_NAME":"ONEWEB-0345","OBJECT_ID":"2021-083AB","EPOCH":"2025-08-18T21:57:25.327008","MEAN_MOTION":13.13470378,"ECCENTRICITY":0.0001473,"INCLINATION":87.899,"RA_OF_ASC_NODE":20.275,"ARG_OF_PERICENTER":110.0087,"MEAN_ANOMALY":250.1201,"EPHEMERIS_TYPE":0,"CLASSIFICATION_TYPE":"U","NORAD_CAT_ID":49211,"ELEMENT_SET_NO":999,"REV_AT_EPOCH":19252,"BSTAR":-0.00076946,"MEAN_MOTION_DOT":-2.68e-6,"MEAN_MOTION_DDOT":0},{"OBJECT_NAME":"ONEWEB-0346","OBJECT_ID":"2021-083AC","EPOCH":"2025-08-19T00:07:50.098944","MEAN_MOTION":13.18684922,"ECCENTRICITY":0.000231,"INCLINATION":87.9145,"RA_OF_ASC_NODE":35.484,"ARG_OF_PERICENTER":102.407,"MEAN_ANOMALY":257.7321,"EPHEMERIS_TYPE":0,"CLASSIFICATION_TYPE":"U","NORAD_CAT_ID":49212,"ELEMENT_SET_NO":999,"REV_AT_EPOCH":19144,"BSTAR":-3.01e-5,"MEAN_MOTION_DOT":1.0e-8,"MEAN_MOTION_DDOT":0},{"OBJECT_NAME":"ONEWEB-0348","OBJECT_ID":"2021-083AD","EPOCH":"2025-08-19T05:21:33.379200","MEAN_MOTION":13.20770519,"ECCENTRICITY":0.0002072,"INCLINATION":87.9293,"RA_OF_ASC_NODE":334.6245,"ARG_OF_PERICENTER":117.5167,"MEAN_ANOMALY":242.6177,"EPHEMERIS_TYPE":0,"CLASSIFICATION_TYPE":"U","NORAD_CAT_ID":49213,"ELEMENT_SET_NO":999,"REV_AT_EPOCH":19825,"BSTAR":0.00030071,"MEAN_MOTION_DOT":1.35e-6,"MEAN_MOTION_DDOT":0},{"OBJECT_NAME":"ONEWEB-0350","OBJECT_ID":"2021-083AE","EPOCH":"2025-08-18T22:10:49.287648","MEAN_MOTION":13.13469981,"ECCENTRICITY":0.0001617,"INCLINATION":87.8995,"RA_OF_ASC_NODE":20.2647,"ARG_OF_PERICENTER":105.2507,"MEAN_ANOMALY":254.88,"EPHEMERIS_TYPE":0,"CLASSIFICATION_TYPE":"U","NORAD_CAT_ID":49214,"ELEMENT_SET_NO":999,"REV_AT_EPOCH":19255,"BSTAR":-0.0001115,"MEAN_MOTION_DOT":-2.8e-7,"MEAN_MOTION_DDOT":0},{"OBJECT_NAME":"ONEWEB-0351","OBJECT_ID":"2021-083AF","EPOCH":"2025-08-18T20:06:49.289472","MEAN_MOTION":13.20770157,"ECCENTRICITY":0.0001285,"INCLINATION":87.9304,"RA_OF_ASC_NODE":334.6851,"ARG_OF_PERICENTER":75.6056,"MEAN_ANOMALY":284.522,"EPHEMERIS_TYPE":0,"CLASSIFICATION_TYPE":"U","NORAD_CAT_ID":49215,"ELEMENT_SET_NO":999,"REV_AT_EPOCH":19686,"BSTAR":-0.00029275,"MEAN_MOTION_DOT":-1.06e-6,"MEAN_MOTION_DDOT":0},{"OBJECT_NAME":"ONEWEB-0352","OBJECT_ID":"2021-083AG","EPOCH":"2025-08-18T23:32:27.765024","MEAN_MOTION":13.13469365,"ECCENTRICITY":0.0001466,"INCLINATION":87.8982,"RA_OF_ASC_NODE":20.2926,"ARG_OF_PERICENTER":82.9389,"MEAN_ANOMALY":277.1907,"EPHEMERIS_TYPE":0,"CLASSIFICATION_TYPE":"U","NORAD_CAT_ID":49216,"ELEMENT_SET_NO":999,"REV_AT_EPOCH":19265,"BSTAR":-0.0013829,"MEAN_MOTION_DOT":-4.92e-6,"MEAN_MOTION_DDOT":0},{"OBJECT_NAME":"ONEWEB-0354","OBJECT_ID":"2021-083AH","EPOCH":"2025-08-19T05:48:51.154272","MEAN_MOTION":13.20772352,"ECCENTRICITY":0.0001812,"INCLINATION":87.9299,"RA_OF_ASC_NODE":334.6038,"ARG_OF_PERICENTER":108.7537,"MEAN_ANOMALY":251.3793,"EPHEMERIS_TYPE":0,"CLASSIFICATION_TYPE":"U","NORAD_CAT_ID":49217,"ELEMENT_SET_NO":999,"REV_AT_EPOCH":19826,"BSTAR":0.00033011,"MEAN_MOTION_DOT":1.47e-6,"MEAN_MOTION_DDOT":0},{"OBJECT_NAME":"ONEWEB-0355","OBJECT_ID":"2021-083AJ","EPOCH":"2025-08-18T20:34:41.971008","MEAN_MOTION":13.13472055,"ECCENTRICITY":0.0001508,"INCLINATION":87.8997,"RA_OF_ASC_NODE":20.3189,"ARG_OF_PERICENTER":96.2166,"MEAN_ANOMALY":263.9135,"EPHEMERIS_TYPE":0,"CLASSIFICATION_TYPE":"U","NORAD_CAT_ID":49218,"ELEMENT_SET_NO":999,"REV_AT_EPOCH":19121,"BSTAR":0.00059163,"MEAN_MOTION_DOT":2.29e-6,"MEAN_MOTION_DDOT":0},{"OBJECT_NAME":"ONEWEB-0357","OBJECT_ID":"2021-083AK","EPOCH":"2025-08-19T05:44:18.671136","MEAN_MOTION":13.20770558,"ECCENTRICITY":0.000171,"INCLINATION":87.9293,"RA_OF_ASC_NODE":334.6068,"ARG_OF_PERICENTER":98.4074,"MEAN_ANOMALY":261.7253,"EPHEMERIS_TYPE":0,"CLASSIFICATION_TYPE":"U","NORAD_CAT_ID":49219,"ELEMENT_SET_NO":999,"REV_AT_EPOCH":19825,"BSTAR":-0.00019233,"MEAN_MOTION_DOT":-6.5e-7,"MEAN_MOTION_DDOT":0},{"OBJECT_NAME":"ONEWEB-0332","OBJECT_ID":"2021-090A","EPOCH":"2025-08-18T21:05:26.863296","MEAN_MOTION":13.14501047,"ECCENTRICITY":0.0001834,"INCLINATION":87.9091,"RA_OF_ASC_NODE":349.8875,"ARG_OF_PERICENTER":90.5215,"MEAN_ANOMALY":269.6125,"EPHEMERIS_TYPE":0,"CLASSIFICATION_TYPE":"U","NORAD_CAT_ID":49279,"ELEMENT_SET_NO":999,"REV_AT_EPOCH":18786,"BSTAR":-9.6749e-5,"MEAN_MOTION_DOT":-2.3e-7,"MEAN_MOTION_DDOT":0},{"OBJECT_NAME":"ONEWEB-0347","OBJECT_ID":"2021-090B","EPOCH":"2025-08-18T20:25:13.045152","MEAN_MOTION":13.20772198,"ECCENTRICITY":0.0002134,"INCLINATION":87.9301,"RA_OF_ASC_NODE":334.6956,"ARG_OF_PERICENTER":92.0064,"MEAN_ANOMALY":268.1314,"EPHEMERIS_TYPE":0,"CLASSIFICATION_TYPE":"U","NORAD_CAT_ID":49280,"ELEMENT_SET_NO":999,"REV_AT_EPOCH":19113,"BSTAR":-0.00014274,"MEAN_MOTION_DOT":-4.5e-7,"MEAN_MOTION_DDOT":0},{"OBJECT_NAME":"ONEWEB-0349","OBJECT_ID":"2021-090C","EPOCH":"2025-08-18T15:43:24.806208","MEAN_MOTION":13.20772699,"ECCENTRICITY":0.0001786,"INCLINATION":87.9293,"RA_OF_ASC_NODE":334.7372,"ARG_OF_PERICENTER":99.1539,"MEAN_ANOMALY":260.9797,"EPHEMERIS_TYPE":0,"CLASSIFICATION_TYPE":"U","NORAD_CAT_ID":49281,"ELEMENT_SET_NO":999,"REV_AT_EPOCH":18989,"BSTAR":-0.00013009,"MEAN_MOTION_DOT":-4.0e-7,"MEAN_MOTION_DDOT":0},{"OBJECT_NAME":"ONEWEB-0353","OBJECT_ID":"2021-090D","EPOCH":"2025-08-18T20:54:02.964960","MEAN_MOTION":13.1450188,"ECCENTRICITY":0.0001913,"INCLINATION":87.9086,"RA_OF_ASC_NODE":349.8759,"ARG_OF_PERICENTER":91.2698,"MEAN_ANOMALY":268.8651,"EPHEMERIS_TYPE":0,"CLASSIFICATION_TYPE":"U","NORAD_CAT_ID":49282,"ELEMENT_SET_NO":999,"REV_AT_EPOCH":18786,"BSTAR":0.00020447,"MEAN_MOTION_DOT":8.9e-7,"MEAN_MOTION_DDOT":0},{"OBJECT_NAME":"ONEWEB-0356","OBJECT_ID":"2021-090E","EPOCH":"2025-08-18T13:52:02.319168","MEAN_MOTION":13.20772879,"ECCENTRICITY":0.0002782,"INCLINATION":87.9295,"RA_OF_ASC_NODE":334.7437,"ARG_OF_PERICENTER":104.7738,"MEAN_ANOMALY":255.3704,"EPHEMERIS_TYPE":0,"CLASSIFICATION_TYPE":"U","NORAD_CAT_ID":49283,"ELEMENT_SET_NO":999,"REV_AT_EPOCH":18988,"BSTAR":5.8423e-5,"MEAN_MOTION_DOT":3.7e-7,"MEAN_MOTION_DDOT":0}]
